KINEIS-1B               
1 60079U 24114A   26197.85436506  .00000325  00000+0  49208-4 0  9992
2 60079  97.9828 221.8981 0002837  34.6899 325.4497 14.80668295111799
KINEIS-1C               
1 60081U 24114C   26197.82041902  .00000310  00000+0  47190-4 0  9996
2 60081  97.9842 221.7201 0002583  92.8782 267.2726 14.80670059111763
KINEIS-1D               
1 60082U 24114D   26197.86537771  .00000282  00000+0  47872-4 0  9990
2 60082  97.9879 217.6774 0002976  95.5917 264.5632 14.76363695111507
KINEIS-1E               
1 60083U 24114E   26197.83821611  .00000374  00000+0  55423-4 0  9990
2 60083  97.8944 220.7889 0004170 106.2773 253.8898 14.80695642111779
KINEIS-1A               
1 60084U 24114F   26197.87166944  .00000321  00000+0  48548-4 0  9998
2 60084  97.8918 220.9150 0005310  58.4481 301.7249 14.80683584111781
KINEIS-3C               
1 61220U 24172A   26197.70383984  .00000859  00000+0  14378-3 0  9991
2 61220  98.0437 287.2900 0002632  80.0951 280.0554 14.72292532 97410
KINEIS-3D               
1 61221U 24172B   26196.20194222  .00000508  00000+0  88303-4 0  9992
2 61221  98.0422 285.8159 0002402  86.0130 274.1352 14.72286098 97471
KINEIS-3E               
1 61222U 24172C   26197.20430116  .00000841  00000+0  14096-3 0  9996
2 61222  98.0429 286.7872 0001742  88.0996 272.0411 14.72278118 97623
KINEIS-3A               
1 61223U 24172D   26197.52753497  .00000808  00000+0  13577-3 0  9998
2 61223  98.0425 287.2050 0002091  39.7444 320.3916 14.72311915 97094
KINEIS-3B               
1 61224U 24172E   26197.23832596  .00000814  00000+0  13669-3 0  9994
2 61224  98.0420 286.9412 0001537  25.9561 334.1723 14.72297646 97621
KINEIS-5C               
1 62081U 24219A   26197.82717443  .00000269  00000+0  50267-4 0  9996
2 62081  97.9069 355.8606 0004290 168.2551 191.8758 14.72315721 88115
KINEIS-5D               
1 62082U 24219B   26197.85348881  .00000407  00000+0  71751-4 0  9991
2 62082  97.9181 355.9568 0005419 162.7506 197.3887 14.72495127 88126
KINEIS-5E               
1 62083U 24219C   26197.87153534  .00000258  00000+0  48398-4 0  9998
2 62083  97.9026 355.9971 0006899 159.5594 200.5891 14.72300277 88131
KINEIS-5A               
1 62084U 24219D   26197.84978062  .00000330  00000+0  59965-4 0  9990
2 62084  97.8967 356.2543 0003927 193.8308 166.2792 14.72263593 88134
KINEIS-5B               
1 62085U 24219E   26197.82835312  .00000468  00000+0  71427-4 0  9998
2 62085  98.0092   1.4954 0002591 142.1543 217.9850 14.78387264 88380
KINEIS-2C               
1 62929U 25028B   26197.11514238  .00000725  00000+0  11964-3 0  9992
2 62929  98.1230 251.5395 0004310 156.8322 203.3081 14.73430533 76876
