{"fetched_at":"2026-07-17T06:38:23.348Z","source":"https://celestrak.org/NORAD/elements/gp.php?NAME=KINEIS&FORMAT=JSON","constellation":"kineis","records":[{"OBJECT_NAME":"KINEIS-1B","OBJECT_ID":"2024-114A","EPOCH":"2026-07-16T20:30:17.141184","CLASSIFICATION_TYPE":"U","MEAN_MOTION":14.80668295,"ECCENTRICITY":0.0002837,"INCLINATION":97.9828,"RA_OF_ASC_NODE":221.8981,"ARG_OF_PERICENTER":34.6899,"MEAN_ANOMALY":325.4497,"EPHEMERIS_TYPE":0,"NORAD_CAT_ID":60079,"ELEMENT_SET_NO":999,"REV_AT_EPOCH":11179,"BSTAR":0.000049208,"MEAN_MOTION_DOT":0.00000325,"MEAN_MOTION_DDOT":0},{"OBJECT_NAME":"KINEIS-1C","OBJECT_ID":"2024-114C","EPOCH":"2026-07-16T19:41:24.203328","CLASSIFICATION_TYPE":"U","MEAN_MOTION":14.80670059,"ECCENTRICITY":0.0002583,"INCLINATION":97.9842,"RA_OF_ASC_NODE":221.7201,"ARG_OF_PERICENTER":92.8782,"MEAN_ANOMALY":267.2726,"EPHEMERIS_TYPE":0,"NORAD_CAT_ID":60081,"ELEMENT_SET_NO":999,"REV_AT_EPOCH":11176,"BSTAR":0.00004719,"MEAN_MOTION_DOT":0.0000031,"MEAN_MOTION_DDOT":0},{"OBJECT_NAME":"KINEIS-1D","OBJECT_ID":"2024-114D","EPOCH":"2026-07-16T20:46:08.634144","CLASSIFICATION_TYPE":"U","MEAN_MOTION":14.76363695,"ECCENTRICITY":0.0002976,"INCLINATION":97.9879,"RA_OF_ASC_NODE":217.6774,"ARG_OF_PERICENTER":95.5917,"MEAN_ANOMALY":264.5632,"EPHEMERIS_TYPE":0,"NORAD_CAT_ID":60082,"ELEMENT_SET_NO":999,"REV_AT_EPOCH":11150,"BSTAR":0.000047872,"MEAN_MOTION_DOT":0.00000282,"MEAN_MOTION_DDOT":0},{"OBJECT_NAME":"KINEIS-1E","OBJECT_ID":"2024-114E","EPOCH":"2026-07-16T20:07:01.871904","CLASSIFICATION_TYPE":"U","MEAN_MOTION":14.80695642,"ECCENTRICITY":0.000417,"INCLINATION":97.8944,"RA_OF_ASC_NODE":220.7889,"ARG_OF_PERICENTER":106.2773,"MEAN_ANOMALY":253.8898,"EPHEMERIS_TYPE":0,"NORAD_CAT_ID":60083,"ELEMENT_SET_NO":999,"REV_AT_EPOCH":11177,"BSTAR":0.000055423,"MEAN_MOTION_DOT":0.00000374,"MEAN_MOTION_DDOT":0},{"OBJECT_NAME":"KINEIS-1A","OBJECT_ID":"2024-114F","EPOCH":"2026-07-16T20:55:12.239616","CLASSIFICATION_TYPE":"U","MEAN_MOTION":14.80683584,"ECCENTRICITY":0.000531,"INCLINATION":97.8918,"RA_OF_ASC_NODE":220.915,"ARG_OF_PERICENTER":58.4481,"MEAN_ANOMALY":301.7249,"EPHEMERIS_TYPE":0,"NORAD_CAT_ID":60084,"ELEMENT_SET_NO":999,"REV_AT_EPOCH":11178,"BSTAR":0.000048548,"MEAN_MOTION_DOT":0.00000321,"MEAN_MOTION_DDOT":0},{"OBJECT_NAME":"KINEIS-3C","OBJECT_ID":"2024-172A","EPOCH":"2026-07-16T16:53:31.762176","CLASSIFICATION_TYPE":"U","MEAN_MOTION":14.72292532,"ECCENTRICITY":0.0002632,"INCLINATION":98.0437,"RA_OF_ASC_NODE":287.29,"ARG_OF_PERICENTER":80.0951,"MEAN_ANOMALY":280.0554,"EPHEMERIS_TYPE":0,"NORAD_CAT_ID":61220,"ELEMENT_SET_NO":999,"REV_AT_EPOCH":9741,"BSTAR":0.00014378,"MEAN_MOTION_DOT":0.00000859,"MEAN_MOTION_DDOT":0},{"OBJECT_NAME":"KINEIS-3D","OBJECT_ID":"2024-172B","EPOCH":"2026-07-15T04:50:47.807808","CLASSIFICATION_TYPE":"U","MEAN_MOTION":14.72286098,"ECCENTRICITY":0.0002402,"INCLINATION":98.0422,"RA_OF_ASC_NODE":285.8159,"ARG_OF_PERICENTER":86.013,"MEAN_ANOMALY":274.1352,"EPHEMERIS_TYPE":0,"NORAD_CAT_ID":61221,"ELEMENT_SET_NO":999,"REV_AT_EPOCH":9747,"BSTAR":0.000088302627,"MEAN_MOTION_DOT":0.00000508,"MEAN_MOTION_DDOT":0},{"OBJECT_NAME":"KINEIS-3E","OBJECT_ID":"2024-172C","EPOCH":"2026-07-16T04:54:11.620224","CLASSIFICATION_TYPE":"U","MEAN_MOTION":14.72278118,"ECCENTRICITY":0.00017427,"INCLINATION":98.0429,"RA_OF_ASC_NODE":286.7872,"ARG_OF_PERICENTER":88.0996,"MEAN_ANOMALY":272.0411,"EPHEMERIS_TYPE":0,"NORAD_CAT_ID":61222,"ELEMENT_SET_NO":999,"REV_AT_EPOCH":9762,"BSTAR":0.00014095958,"MEAN_MOTION_DOT":0.00000841,"MEAN_MOTION_DDOT":0},{"OBJECT_NAME":"KINEIS-3A","OBJECT_ID":"2024-172D","EPOCH":"2026-07-16T12:39:39.021408","CLASSIFICATION_TYPE":"U","MEAN_MOTION":14.72311915,"ECCENTRICITY":0.0002091,"INCLINATION":98.0425,"RA_OF_ASC_NODE":287.205,"ARG_OF_PERICENTER":39.7444,"MEAN_ANOMALY":320.3916,"EPHEMERIS_TYPE":0,"NORAD_CAT_ID":61223,"ELEMENT_SET_NO":999,"REV_AT_EPOCH":9709,"BSTAR":0.00013577,"MEAN_MOTION_DOT":0.00000808,"MEAN_MOTION_DDOT":0},{"OBJECT_NAME":"KINEIS-3B","OBJECT_ID":"2024-172E","EPOCH":"2026-07-16T05:43:11.362944","CLASSIFICATION_TYPE":"U","MEAN_MOTION":14.72297646,"ECCENTRICITY":0.0001537,"INCLINATION":98.042,"RA_OF_ASC_NODE":286.9412,"ARG_OF_PERICENTER":25.9561,"MEAN_ANOMALY":334.1723,"EPHEMERIS_TYPE":0,"NORAD_CAT_ID":61224,"ELEMENT_SET_NO":999,"REV_AT_EPOCH":9762,"BSTAR":0.00013669,"MEAN_MOTION_DOT":0.00000814,"MEAN_MOTION_DDOT":0},{"OBJECT_NAME":"KINEIS-5C","OBJECT_ID":"2024-219A","EPOCH":"2026-07-16T19:51:07.870752","CLASSIFICATION_TYPE":"U","MEAN_MOTION":14.72315721,"ECCENTRICITY":0.000429,"INCLINATION":97.9069,"RA_OF_ASC_NODE":355.8606,"ARG_OF_PERICENTER":168.2551,"MEAN_ANOMALY":191.8758,"EPHEMERIS_TYPE":0,"NORAD_CAT_ID":62081,"ELEMENT_SET_NO":999,"REV_AT_EPOCH":8811,"BSTAR":0.000050267,"MEAN_MOTION_DOT":0.00000269,"MEAN_MOTION_DDOT":0},{"OBJECT_NAME":"KINEIS-5D","OBJECT_ID":"2024-219B","EPOCH":"2026-07-16T20:29:01.433184","CLASSIFICATION_TYPE":"U","MEAN_MOTION":14.72495127,"ECCENTRICITY":0.0005419,"INCLINATION":97.9181,"RA_OF_ASC_NODE":355.9568,"ARG_OF_PERICENTER":162.7506,"MEAN_ANOMALY":197.3887,"EPHEMERIS_TYPE":0,"NORAD_CAT_ID":62082,"ELEMENT_SET_NO":999,"REV_AT_EPOCH":8812,"BSTAR":0.000071751,"MEAN_MOTION_DOT":0.00000407,"MEAN_MOTION_DDOT":0},{"OBJECT_NAME":"KINEIS-5E","OBJECT_ID":"2024-219C","EPOCH":"2026-07-16T20:55:00.653376","CLASSIFICATION_TYPE":"U","MEAN_MOTION":14.72300277,"ECCENTRICITY":0.0006899,"INCLINATION":97.9026,"RA_OF_ASC_NODE":355.9971,"ARG_OF_PERICENTER":159.5594,"MEAN_ANOMALY":200.5891,"EPHEMERIS_TYPE":0,"NORAD_CAT_ID":62083,"ELEMENT_SET_NO":999,"REV_AT_EPOCH":8813,"BSTAR":0.000048398,"MEAN_MOTION_DOT":0.00000258,"MEAN_MOTION_DDOT":0},{"OBJECT_NAME":"KINEIS-5A","OBJECT_ID":"2024-219D","EPOCH":"2026-07-16T20:23:41.045568","CLASSIFICATION_TYPE":"U","MEAN_MOTION":14.72263593,"ECCENTRICITY":0.0003927,"INCLINATION":97.8967,"RA_OF_ASC_NODE":356.2543,"ARG_OF_PERICENTER":193.8308,"MEAN_ANOMALY":166.2792,"EPHEMERIS_TYPE":0,"NORAD_CAT_ID":62084,"ELEMENT_SET_NO":999,"REV_AT_EPOCH":8813,"BSTAR":0.000059965,"MEAN_MOTION_DOT":0.0000033,"MEAN_MOTION_DDOT":0},{"OBJECT_NAME":"KINEIS-5B","OBJECT_ID":"2024-219E","EPOCH":"2026-07-16T19:52:49.709568","CLASSIFICATION_TYPE":"U","MEAN_MOTION":14.78387264,"ECCENTRICITY":0.0002591,"INCLINATION":98.0092,"RA_OF_ASC_NODE":1.4954,"ARG_OF_PERICENTER":142.1543,"MEAN_ANOMALY":217.985,"EPHEMERIS_TYPE":0,"NORAD_CAT_ID":62085,"ELEMENT_SET_NO":999,"REV_AT_EPOCH":8838,"BSTAR":0.000071427,"MEAN_MOTION_DOT":0.00000468,"MEAN_MOTION_DDOT":0},{"OBJECT_NAME":"KINEIS-2C","OBJECT_ID":"2025-028B","EPOCH":"2026-07-16T02:45:48.301632","CLASSIFICATION_TYPE":"U","MEAN_MOTION":14.73430533,"ECCENTRICITY":0.00043104,"INCLINATION":98.123,"RA_OF_ASC_NODE":251.5395,"ARG_OF_PERICENTER":156.8322,"MEAN_ANOMALY":203.3081,"EPHEMERIS_TYPE":0,"NORAD_CAT_ID":62929,"ELEMENT_SET_NO":999,"REV_AT_EPOCH":7687,"BSTAR":0.00011963647,"MEAN_MOTION_DOT":0.00000725,"MEAN_MOTION_DDOT":0}]}
